     3.02           N: GNSS NAV DATA    R: GLONASS          RINEX VERSION / TYPE                                                
Версия от 220825                        20240111 01:02:26UTCPGM / RUN BY / DATE                                                 
GLUT  0.2328306437D-08 0.000000000D+00 603918 2295          TIME SYSTEM CORR
                                                            END OF HEADER                                                       
R05 2024 01 07 20 15 00 0.125018879771D-03 0.000000000000D+00 0.720000000000D+05
     0.899760791016D+04 0.190997791290D+01-0.931322574616D-09 0.000000000000D+00
    -0.584783642578D+04 0.253265666962D+01 0.000000000000D+00 0.100000000000D+01
    -0.231299750977D+05 0.999155044556D-01 0.279396772385D-08 0.000000000000D+00
R06 2024 01 07 20 15 00-0.145349651575D-03-0.909494701773D-12 0.720000000000D+05
    -0.720246679688D+04 0.116019821167D+01-0.372529029846D-08 0.000000000000D+00
    -0.197056152344D+05 0.161479187012D+01 0.000000000000D+00-0.400000000000D+01
    -0.145000024414D+05-0.277479839325D+01 0.000000000000D+00 0.000000000000D+00
R07 2024 01 07 20 15 00 0.730911269784D-04 0.000000000000D+00 0.720000000000D+05
    -0.161729291992D+05-0.296107292175D+00-0.279396772385D-08 0.000000000000D+00
    -0.195976347656D+05-0.974674224853D-01 0.000000000000D+00 0.500000000000D+01
     0.191943066406D+04-0.357015514374D+01-0.279396772385D-08 0.000000000000D+00
R08 2024  1  7 20 15  0-0.739209353924D-04 0.000000000000D+00 0.720000000000D+05
    -0.169639663086D+05-0.148377227783D+01 0.000000000000D+00 0.000000000000D+00
    -0.924368359375D+04-0.172965812683D+01 0.000000000000D+00 0.600000000000D+01
     0.166941103516D+05-0.247772789002D+01-0.372529029846D-08 0.000000000000D+00
R09 2024 01 07 20 15 00 0.163137912750D-03 0.181898940355D-11 0.720000000000D+05
     0.420871679688D+04 0.299037551880D+01 0.186264514923D-08 0.000000000000D+00
    -0.118523833008D+05-0.514501571655D+00 0.186264514923D-08-0.200000000000D+01
     0.221932260742D+05-0.849617958069D+00-0.931322574616D-09 0.000000000000D+00
R10 2024 01 07 20 15 00-0.106201507151D-03-0.545696821064D-11 0.720000000000D+05
    -0.119936665039D+05 0.284010791779D+01 0.000000000000D+00 0.000000000000D+00
    -0.834859179688D+04-0.367917060852D+00 0.000000000000D+00-0.700000000000D+01
     0.208699003906D+05 0.149133586884D+01-0.279396772385D-08 0.000000000000D+00
R11 2024  1  7 20 15  0-0.226079486310D-03-0.181898940355D-11 0.720000000000D+05
    -0.243882153320D+05 0.103838634491D+01-0.186264514923D-08 0.000000000000D+00
    -0.230546875000D+02 0.536441802979D-02-0.931322574616D-09 0.000000000000D+00
     0.750553222656D+04 0.337502193451D+01-0.372529029846D-08 0.000000000000D+00
R12 2024  1  7 20 15  0 0.353446230292D-04 0.000000000000D+00 0.720000000000D+05
    -0.209939970703D+05-0.156493663788D+01-0.279396772385D-08 0.000000000000D+00
     0.857314160156D+04 0.347178459168D+00-0.186264514923D-08-0.100000000000D+01
    -0.116446752930D+05 0.307388591766D+01-0.931322574616D-09 0.000000000000D+00
R13 2024 01 07 20 15 00-0.430624932051D-04 0.000000000000D+00 0.720000000000D+05
    -0.699673437500D+04-0.291632461548D+01-0.279396772385D-08 0.000000000000D+00
     0.115858886719D+05 0.491231918335D+00-0.186264514923D-08-0.200000000000D+01
    -0.216403090820D+05 0.120763778686D+01 0.931322574616D-09 0.000000000000D+00
R14 2024 01 07 20 15 00 0.258963555098D-04 0.000000000000D+00 0.720000000000D+05
     0.140524418945D+05-0.269796562195D+01 0.000000000000D+00 0.000000000000D+00
     0.768633984375D+04 0.330118179321D+00 0.000000000000D+00-0.700000000000D+01
    -0.198422788086D+05-0.178376579285D+01 0.279396772385D-08 0.000000000000D+00
R15 2024 01 07 20 15 00 0.833040103316D-04 0.000000000000D+00 0.720000000000D+05
     0.247713579102D+05-0.841550827026D+00 0.186264514923D-08 0.000000000000D+00
    -0.488602050781D+03-0.245981216431D-01 0.931322574616D-09 0.000000000000D+00
    -0.605151318359D+04-0.343621253967D+01 0.279396772385D-08 0.000000000000D+00
R16 2024 01 07 20 15 00 0.222679227591D-04 0.000000000000D+00 0.720000000000D+05
     0.211239365234D+05 0.153044986725D+01 0.279396772385D-08 0.000000000000D+00
    -0.853205810547D+04-0.372277259827D+00 0.186264514923D-08-0.100000000000D+01
     0.114444365234D+05-0.310560512543D+01 0.931322574616D-09 0.000000000000D+00
R17 2024 01 07 20 15 00 0.503519549966D-04 0.272848410532D-11 0.720000000000D+05
     0.399062988281D+04-0.991939544678D+00 0.372529029846D-08 0.000000000000D+00
     0.146694663086D+05 0.262620353699D+01 0.000000000000D+00 0.400000000000D+01
     0.204857573242D+05-0.169173431397D+01 0.000000000000D+00 0.000000000000D+00
R18 2024 01 07 20 15 00 0.120935030281D-03 0.181898940355D-11 0.720000000000D+05
     0.117448481445D+05-0.127818679810D+01 0.372529029846D-08 0.000000000000D+00
    -0.146185107422D+04 0.281939220429D+01 0.186264514923D-08-0.300000000000D+01
     0.226099711914D+05 0.851771354675D+00 0.000000000000D+00 0.000000000000D+00
R19 2024 01 07 20 15 00-0.261186622083D-03-0.909494701773D-12 0.720000000000D+05
     0.143225507812D+05-0.101882362366D+01 0.186264514923D-08 0.000000000000D+00
    -0.153920297852D+05 0.171021938324D+01 0.186264514923D-08 0.300000000000D+01
     0.144507861328D+05 0.283240032196D+01 0.000000000000D+00 0.000000000000D+00
R20 2024 01 07 20 15 00-0.106427818537D-03-0.909494701773D-12 0.720000000000D+05
     0.806308837891D+04 0.135453224182D+00-0.931322574616D-09 0.000000000000D+00
    -0.234138701172D+05-0.851322174072D+00 0.931322574616D-09 0.200000000000D+01
    -0.601250000000D+04 0.349182415008D+01 0.000000000000D+00 0.000000000000D+00
R21 2024 01 07 20 15 00-0.671222805977D-04-0.272848410532D-11 0.720000000000D+05
    -0.403344531250D+04 0.102148818970D+01-0.372529029846D-08 0.000000000000D+00
    -0.143521079102D+05-0.265062713623D+01 0.000000000000D+00 0.400000000000D+01
    -0.206978891602D+05 0.163613414764D+01 0.000000000000D+00 0.000000000000D+00
R22 2024 01 07 20 15 00 0.102062709630D-03 0.181898940355D-11 0.720000000000D+05
    -0.125110058594D+05 0.132889842987D+01-0.372529029846D-08 0.000000000000D+00
     0.211322119141D+04-0.272838401794D+01-0.186264514923D-08-0.300000000000D+01
    -0.220997294922D+05-0.101038742065D+01 0.000000000000D+00 0.000000000000D+00
R23 2024  1  7 20 15  0-0.108106993139D-03-0.909494701773D-12 0.720000000000D+05
    -0.136266420898D+05 0.816180229187D+00-0.186264514923D-08 0.000000000000D+00
     0.184065893555D+05-0.132447528839D+01-0.186264514923D-08 0.300000000000D+01
    -0.112399418945D+05-0.315787982941D+01 0.000000000000D+00 0.000000000000D+00
R24 2024 01 07 20 15 00-0.389916822314D-04-0.181898940355D-11 0.720000000000D+05
    -0.666355810547D+04-0.193644523621D+00 0.931322574616D-09 0.000000000000D+00
     0.237274824219D+05 0.892761230469D+00-0.931322574616D-09 0.200000000000D+01
     0.657810937500D+04-0.342931461334D+01 0.000000000000D+00 0.000000000000D+00
R25 2024 01 07 20 15 00 0.218423083425D-04 0.245563569479D-10 0.720000000000D+05
    -0.362952734375D+04 0.111422920227D+01-0.372529029846D-08 0.100000000000D+01
    -0.149212128906D+05-0.255955028534D+01 0.000000000000D+00-0.500000000000D+01
    -0.203636313477D+05 0.167426967621D+01 0.000000000000D+00 0.000000000000D+00
R26 2024 01 07 20 15 00 0.000000000000D+00-0.181898940355D-11 0.720000000000D+05
    -0.172138554688D+05-0.145084857941D+01 0.000000000000D+00 0.100000000000D+01
    -0.987845312500D+04-0.165124702454D+01 0.000000000000D+00-0.700000000000D+01
     0.160553774414D+05-0.257300472259D+01 0.279396772385D-08 0.000000000000D+00
R01 2024 01 07 20 45 00 0.739973038435D-04 0.909494701773D-12 0.738000000000D+05
    -0.115503701172D+05-0.225904941559D+01 0.931322574616D-09 0.000000000000D+00
     0.376927294922D+04-0.208014583588D+01 0.000000000000D+00 0.100000000000D+01
     0.224312104492D+05-0.813088417053D+00-0.279396772385D-08 0.000000000000D+00
R02 2024 01 07 20 45 00-0.223778188229D-04 0.000000000000D+00 0.738000000000D+05
     0.300295458984D+04-0.180129623413D+01 0.372529029846D-08 0.000000000000D+00
     0.160997031250D+05-0.198077869415D+01 0.000000000000D+00-0.400000000000D+01
     0.196274296875D+05 0.189799594879D+01 0.000000000000D+00 0.000000000000D+00
R03 2024 01 07 20 45 00 0.923527404666D-04 0.909494701773D-12 0.738000000000D+05
     0.157609897461D+05-0.399407386780D+00 0.372529029846D-08 0.000000000000D+00
     0.193495654297D+05-0.652239799499D+00 0.000000000000D+00 0.500000000000D+01
     0.548614990234D+04 0.347114562988D+01 0.186264514923D-08 0.000000000000D+00
R04 2024 01 07 20 45 00 0.218524597585D-03 0.909494701773D-12 0.738000000000D+05
     0.193468310547D+05 0.121742343903D+01 0.186264514923D-08 0.000000000000D+00
     0.121491420898D+05 0.987726211548D+00 0.000000000000D+00 0.600000000000D+01
    -0.113394418945D+05 0.312542915344D+01 0.279396772385D-08 0.000000000000D+00
R05 2024 01 07 20 45 00 0.125018879771D-03 0.909494701773D-12 0.738000000000D+05
     0.126963857422D+05 0.216076755524D+01 0.000000000000D+00 0.000000000000D+00
    -0.163179736328D+04 0.211709022522D+01 0.000000000000D+00 0.100000000000D+01
    -0.220575747070D+05 0.108380985260D+01 0.279396772385D-08 0.000000000000D+00
R06 2024 01 07 20 45 00-0.145352445543D-03-0.909494701773D-12 0.738000000000D+05
    -0.451565820312D+04 0.181965351105D+01-0.279396772385D-08 0.000000000000D+00
    -0.165592309570D+05 0.183447456360D+01 0.000000000000D+00-0.400000000000D+01
    -0.188693476562D+05-0.204857063294D+01 0.000000000000D+00 0.000000000000D+00
R07 2024 01 07 20 45 00 0.730920583010D-04 0.000000000000D+00 0.738000000000D+05
    -0.161785766602D+05 0.318943977356D+00-0.372529029846D-08 0.000000000000D+00
    -0.191531171875D+05 0.562027931213D+00 0.000000000000D+00 0.500000000000D+01
    -0.449797998047D+04-0.351380825043D+01-0.186264514923D-08 0.000000000000D+00
